1 40889U 15045A   19110.83058549 -.00000036  00000-0  00000+0 0  9997
2 40889  56.4928 293.7400 0004192  36.8366 323.1650  1.70474991 22442
1 40889U 15045A   19113.17691736 -.00000031  00000-0  00000+0 0  9993
2 40889  56.4911 293.6757 0004113  37.3364 322.6644  1.70475118 22488
1 40889U 15045A   19113.17691736 -.00000031  00000-0  00000-0 0  9994
2 40889  56.4911 293.6757 0004113  37.3364 322.6644  1.70475118 22488
1 40889U 15045A   19114.35008960 -.00000027  00000-0  00000-0 0  9991
2 40889  56.4903 293.6436 0004101  37.3455 322.6584  1.70475141 22503
1 40889U 15045A   19115.52326262 -.00000023  00000-0  00000+0 0  9994
2 40889  56.4894 293.6115 0004069  37.4905 322.5172  1.70475172 22528
1 40889U 15045A   19115.52326262 -.00000023  00000-0  00000-0 0  9995
2 40889  56.4894 293.6115 0004069  37.4905 322.5172  1.70475172 22528
1 40889U 15045A   19117.86960449 -.00000019  00000-0  00000+0 0  9999
2 40889  56.4875 293.5473 0004008  37.7982 322.2148  1.70475215 22566
1 40889U 15045A   19119.04277113 -.00000018  00000-0  00000-0 0  9990
2 40889  56.4865 293.5152 0003975  38.1024 321.9108  1.70475217 22589
1 40889U 15045A   19120.21593398 -.00000017  00000-0  00000+0 0  9995
2 40889  56.4856 293.4830 0003962  38.2348 321.7766  1.70475215 22606
1 40889U 15045A   19120.80251449 -.00000017  00000-0  00000-0 0  9999
2 40889  56.4851 293.4670 0003943  38.4555 321.5543  1.70475209 22619
1 40889U 15045A   19122.56225347 -.00000017  00000-0  00000+0 0  9991
2 40889  56.4837 293.4188 0003897  38.7731 321.2302  1.70475178 22642
1 40889U 15045A   19122.56225347 -.00000017  00000-0  00000-0 0  9992
2 40889  56.4837 293.4188 0003897  38.7731 321.2302  1.70475178 22642
1 40889U 15045A   19125.49515388 -.00000017  00000-0  00000+0 0  9993
2 40889  56.4814 293.3385 0003805  39.3388 320.6548  1.70475125 22691
1 40889U 15045A   19127.84148824 -.00000015  00000-0  00000+0 0  9999
2 40889  56.4795 293.2743 0003733  39.7165 320.2781  1.70475079 22731
1 40889U 15045A   19128.42807355 -.00000014  00000-0  00000-0 0  9995
2 40889  56.4792 293.2583 0003755  39.8006 320.1958  1.70475086 22743
1 40889U 15045A   19130.18783157 -.00000014  00000-0  00000+0 0  9993
2 40889  56.4778 293.2101 0003701  40.0111 319.9905  1.70475065 22773
1 40889U 15045A   19131.94758313 -.00000021  00000-0  00000-0 0  9993
2 40889  56.4765 293.1618 0003623  40.2208 319.7825  1.70475066 22807
1 40889U 15045A   19132.53416419 -.00000025  00000-0  00000-0 0  9991
2 40889  56.4761 293.1458 0003580  40.2027 319.7995  1.70475071 22811
1 40889U 15045A   19132.53416458 -.00000025  00000-0  00000+0 0  9993
2 40889  56.4761 293.1458 0003589  40.2572 319.7452  1.70475066 22817
1 40889U 15045A   19134.29390213 -.00000039  00000-0  00000-0 0  9994
2 40889  56.4746 293.0975 0003521  40.1597 319.8355  1.70475094 22842
1 40889U 15045A   19135.46705683 -.00000049  00000-0  00000+0 0  9995
2 40889  56.4735 293.0655 0003472  39.9774 320.0108  1.70475127 22862
1 40889U 15045A   19136.64021320 -.00000055  00000-0  00000-0 0  9993
2 40889  56.4723 293.0332 0003459  40.1235 319.8587  1.70475145 22881
1 40889U 15045A   19137.22679231 -.00000058  00000-0  00000-0 0  9991
2 40889  56.4715 293.0172 0003447  40.1458 319.8340  1.70475164 22897
1 40889U 15045A   19141.91946643 -.00000048  00000-0  00000+0 0  9994
2 40889  56.4666 292.8886 0003316  40.3244 319.6618  1.70475314 22973
1 40889U 15045A   19142.50605205 -.00000047  00000-0  00000-0 0  9996
2 40889  56.4678 292.8726 0003255  40.0471 319.9414  1.70475346 22983
1 40889U 15045A   19143.67922559 -.00000044  00000-0  00000-0 0  9996
2 40889  56.4656 292.8409 0003277  39.9123 320.0818  1.70475386 23001
1 40889U 15045A   19144.85239628 -.00000042  00000-0  00000-0 0  9993
2 40889  56.4657 292.8088 0003186  39.7229 320.2748  1.70475417 23020
1 40889U 15045A   19144.85239710 -.00000042  00000-0  00000+0 0  9994
2 40889  56.4649 292.8087 0003229  39.8951 320.1030  1.70475403 23029
1 40889U 15045A   19144.85239710 -.00000042  00000-0  00000-0 0  9995
2 40889  56.4649 292.8087 0003229  39.8951 320.1030  1.70475403 23029
1 40889U 15045A   19146.61214826 -.00000040  00000-0  00000-0 0  9990
2 40889  56.4644 292.7607 0003124  39.7756 320.2248  1.70475414 23054
1 40889U 15045A   19148.37189312 -.00000039  00000-0  00000+0 0  9993
2 40889  56.4629 292.7125 0003075  39.9240 320.0749  1.70475405 23084
1 40889U 15045A   19149.54505343 -.00000038  00000-0  00000-0 0  9999
2 40889  56.4616 292.6804 0003028  39.9945 320.0017  1.70475381 23107
1 40889U 15045A   19151.89137501 -.00000037  00000-0  00000+0 0  9995
2 40889  56.4597 292.6161 0002932  40.0079 319.9831  1.70475332 23146
1 40889U 15045A   19154.23770725 -.00000034  00000-0  00000+0 0  9994
2 40889  56.4571 292.5520 0002849  39.9844 320.0080  1.70475284 23189
1 40889U 15045A   19155.41087863 -.00000032  00000-0  00000-0 0  9998
2 40889  56.4575 292.5199 0002810  39.6810 320.3152  1.70475271 23205
1 40889U 15045A   19156.58405180 -.00000030  00000-0  00000-0 0  9991
2 40889  56.4562 292.4878 0002765  39.6343 320.3673  1.70475257 23228
1 40889U 15045A   19157.17063895 -.00000030  00000-0  00000-0 0  9990
2 40889  56.4556 292.4717 0002759  39.6251 320.3793  1.70475258 23239
1 40889U 15045A   19158.34381091 -.00000032  00000-0  00000+0 0  9992
2 40889  56.4543 292.4397 0002726  39.6132 320.3955  1.70475255 23250
1 40889U 15045A   19159.51697857 -.00000037  00000-0  00000-0 0  9998
2 40889  56.4531 292.4075 0002687  39.4034 320.6070  1.70475252 23275
1 40889U 15045A   19161.27671990 -.00000050  00000-0  00000-0 0  9999
2 40889  56.4517 292.3593 0002602  38.8257 321.1812  1.70475264 23307
1 40889U 15045A   19162.44987671 -.00000059  00000-0  00000-0 0  9994
2 40889  56.4506 292.3272 0002565  38.4167 321.5851  1.70475280 23320
1 40889U 15045A   19163.62303255 -.00000066  00000-0  00000+0 0  9992
2 40889  56.4495 292.2951 0002511  37.8110 322.1856  1.70475318 23348
1 40889U 15045A   19165.38277363 -.00000070  00000-0  00000-0 0  9993
2 40889  56.4480 292.2468 0002476  37.4564 322.5365  1.70475357 23379
1 40889U 15045A   19165.96935590 -.00000069  00000-0  00000+0 0  9997
2 40889  56.4456 292.2308 0002454  36.9415 323.0515  1.70475395 23386
1 40889U 15045A   19166.55593975 -.00000068  00000-0  00000-0 0  9990
2 40889  56.4446 292.2147 0002454  36.9381 323.0562  1.70475409 23397
1 40889U 15045A   19168.90228518 -.00000059  00000-0  00000-0 0  9999
2 40889  56.4450 292.1505 0002341  36.2777 323.7268  1.70475493 23434
1 40889U 15045A   19168.90228528 -.00000059  00000-0  00000+0 0  9999
2 40889  56.4431 292.1504 0002372  36.2350 323.7697  1.70475482 23437
1 40889U 15045A   19168.90228528 -.00000059  00000-0  00000-0 0  9990
2 40889  56.4431 292.1504 0002372  36.2350 323.7697  1.70475482 23437
1 40889U 15045A   19170.66204815 -.00000053  00000-0  00000-0 0  9993
2 40889  56.4436 292.1024 0002292  35.5350 324.4798  1.70475533 23462
1 40889U 15045A   19171.24863527 -.00000051  00000-0  00000+0 0  9996
2 40889  56.4431 292.0863 0002296  35.5372 324.4809  1.70475545 23472
1 40889U 15045A   19171.83522141 -.00000050  00000-0  00000-0 0  9995
2 40889  56.4426 292.0703 0002271  35.2422 324.7786  1.70475557 23486
1 40889U 15045A   19174.18155935 -.00000046  00000-0  00000+0 0  9993
2 40889  56.4407 292.0061 0002196  34.4216 325.6053  1.70475567 23523
1 40889U 15045A   19175.35472352 -.00000044  00000-0  00000-0 0  9997
2 40889  56.4397 291.9741 0002155  34.1076 325.9195  1.70475559 23543
1 40889U 15045A   19176.52788534 -.00000043  00000-0  00000+0 0  9997
2 40889  56.4387 291.9420 0002114  33.7575 326.2683  1.70475546 23564
1 40889U 15045A   19178.28762667 -.00000041  00000-0  00000-0 0  9990
2 40889  56.4371 291.8938 0002025  32.7676 327.2553  1.70475500 23592
1 40889U 15045A   19178.87420736 -.00000040  00000-0  00000+0 0  9991
2 40889  56.4367 291.8777 0002002  32.3806 327.6418  1.70475492 23600
1 40889U 15045A   19179.46078928 -.00000039  00000-0  00000-0 0  9998
2 40889  56.4361 291.8616 0002007  32.5464 327.4761  1.70475492 23613
1 40889U 15045A   19180.04737188 -.00000038  00000-0  00000-0 0  9993
2 40889  56.4356 291.8455 0001994  32.3032 327.7197  1.70475481 23626
1 40889U 15045A   19180.63395499 -.00000036  00000-0  00000-0 0  9991
2 40889  56.4351 291.8295 0001961  31.6031 328.4205  1.70475454 23637
1 40889U 15045A   19182.39371117 -.00000031  00000-0  00000+0 0  9991
2 40889  56.4337 291.7813 0001925  30.7951 329.2346  1.70475421 23669
1 40889U 15045A   19183.56688560 -.00000028  00000-0  00000-0 0  9991
2 40889  56.4327 291.7491 0001904  30.2280 329.8080  1.70475401 23688
1 40889U 15045A   19187.08639843 -.00000033  00000-0  00000+0 0  9997
2 40889  56.4295 291.6526 0001809  27.6375 332.4109  1.70475362 23744
1 40889U 15045A   19188.25955924 -.00000040  00000-0  00000-0 0  9997
2 40889  56.4285 291.6205 0001764  25.9371 334.1094  1.70475364 23760
1 40889U 15045A   19189.43271735 -.00000049  00000-0  00000+0 0  9997
2 40889  56.4275 291.5883 0001753  25.3521 334.6905  1.70475370 23784
1 40889U 15045A   19191.19245216 -.00000058  00000-0  00000-0 0  9999
2 40889  56.4260 291.5400 0001713  23.4246 336.6110  1.70475396 23814
1 40889U 15045A   19192.95219410 -.00000060  00000-0  00000+0 0  9993
2 40889  56.4246 291.4917 0001675  21.1881 338.8449  1.70475450 23840
1 40889U 15045A   19194.71194798 -.00000054  00000-0  00000-0 0  9994
2 40889  56.4231 291.4434 0001653  20.0446 339.9931  1.70475485 23878
1 40889U 15045A   19195.29853435 -.00000051  00000-0  00000+0 0  9994
2 40889  56.4226 291.4274 0001628  18.7998 341.2405  1.70475518 23882
1 40889U 15045A   19195.29853435 -.00000051  00000-0  00000-0 0  9995
2 40889  56.4226 291.4274 0001628  18.7998 341.2405  1.70475518 23882
1 40889U 15045A   19196.47170921 -.00000046  00000-0  00000-0 0  9992
2 40889  56.4216 291.3952 0001607  17.4303 342.6167  1.70475536 23909
